{
  "type": "FeatureCollection",
  "features": [
    {
      "type": "Feature",
      "properties": {
        "norad_id": 38755,
        "name": "SPOT 6",
        "group": "resource",
        "lat": -43.0902799107436,
        "lon": -125.64146878891803,
        "alt_km": 705.2822082705034,
        "timestamp": "2025-12-23T11:34:47.838925+00:00",
        "meta_object_name": "SPOT 6",
        "meta_object_id": "2012-047A",
        "meta_epoch": "2025-12-23T03:58:20.579808",
        "meta_mean_motion": 14.5854069,
        "meta_eccentricity": 0.0001268,
        "meta_inclination": 98.1561,
        "meta_ra_of_asc_node": 61.7575,
        "meta_arg_of_pericenter": 78.3165,
        "meta_mean_anomaly": 281.8177,
        "meta_ephemeris_type": 0,
        "meta_classification_type": "U",
        "meta_norad_cat_id": 38755,
        "meta_element_set_no": 999,
        "meta_rev_at_epoch": 70739,
        "meta_bstar": 7.3643e-05,
        "meta_mean_motion_dot": 2.97e-06,
        "meta_mean_motion_ddot": 0,
        "tle_line1": "1 38755U 12047A   25357.16551597  .00000297  00000+0  73643-4 0  9997",
        "tle_line2": "2 38755  98.1561  61.7575 0001268  78.3165 281.8177 14.58540690707390"
      },
      "geometry": {
        "type": "Point",
        "coordinates": [
          -125.64146878891803,
          -43.0902799107436
        ]
      }
    },
    {
      "type": "Feature",
      "properties": {
        "norad_id": 39019,
        "name": "PLEIADES 1B",
        "group": "resource",
        "lat": 57.17793355585515,
        "lon": -97.15193023373534,
        "alt_km": 691.6672827161683,
        "timestamp": "2025-12-23T11:34:47.838934+00:00",
        "meta_object_name": "PLEIADES 1B",
        "meta_object_id": "2012-068A",
        "meta_epoch": "2025-12-23T04:26:15.538848",
        "meta_mean_motion": 14.58561671,
        "meta_eccentricity": 0.0001153,
        "meta_inclination": 98.1786,
        "meta_ra_of_asc_node": 69.6717,
        "meta_arg_of_pericenter": 86.3472,
        "meta_mean_anomaly": 273.7859,
        "meta_ephemeris_type": 0,
        "meta_classification_type": "U",
        "meta_norad_cat_id": 39019,
        "meta_element_set_no": 999,
        "meta_rev_at_epoch": 69519,
        "meta_bstar": 8.201e-05,
        "meta_mean_motion_dot": 3.36e-06,
        "meta_mean_motion_ddot": 0,
        "tle_line1": "1 39019U 12068A   25357.18490207  .00000336  00000+0  82010-4 0  9998",
        "tle_line2": "2 39019  98.1786  69.6717 0001153  86.3472 273.7859 14.58561671695194"
      },
      "geometry": {
        "type": "Point",
        "coordinates": [
          -97.15193023373534,
          57.17793355585515
        ]
      }
    },
    {
      "type": "Feature",
      "properties": {
        "norad_id": 39030,
        "name": "GOKTURK 2",
        "group": "resource",
        "lat": -79.79980952930637,
        "lon": -30.050107009507567,
        "alt_km": 652.4236061594556,
        "timestamp": "2025-12-23T11:34:47.838943+00:00",
        "meta_object_name": "GOKTURK 2",
        "meta_object_id": "2012-073A",
        "meta_epoch": "2025-12-23T03:52:44.791392",
        "meta_mean_motion": 14.75304221,
        "meta_eccentricity": 0.000136,
        "meta_inclination": 97.6883,
        "meta_ra_of_asc_node": 198.3023,
        "meta_arg_of_pericenter": 106.6409,
        "meta_mean_anomaly": 253.495,
        "meta_ephemeris_type": 0,
        "meta_classification_type": "U",
        "meta_norad_cat_id": 39030,
        "meta_element_set_no": 999,
        "meta_rev_at_epoch": 69855,
        "meta_bstar": 7.3225e-05,
        "meta_mean_motion_dot": 4.49e-06,
        "meta_mean_motion_ddot": 0,
        "tle_line1": "1 39030U 12073A   25357.16162953  .00000449  00000+0  73225-4 0  9992",
        "tle_line2": "2 39030  97.6883 198.3023 0001360 106.6409 253.4950 14.75304221698550"
      },
      "geometry": {
        "type": "Point",
        "coordinates": [
          -30.050107009507567,
          -79.79980952930637
        ]
      }
    },
    {
      "type": "Feature",
      "properties": {
        "norad_id": 39084,
        "name": "LANDSAT 8",
        "group": "resource",
        "lat": -55.31288794159562,
        "lon": -126.63758162844861,
        "alt_km": 710.1624305876485,
        "timestamp": "2025-12-23T11:34:47.838952+00:00",
        "meta_object_name": "LANDSAT 8",
        "meta_object_id": "2013-008A",
        "meta_epoch": "2025-12-23T03:54:26.747712",
        "meta_mean_motion": 14.5711285,
        "meta_eccentricity": 0.0001063,
        "meta_inclination": 98.2058,
        "meta_ra_of_asc_node": 65.0818,
        "meta_arg_of_pericenter": 92.206,
        "meta_mean_anomaly": 267.926,
        "meta_ephemeris_type": 0,
        "meta_classification_type": "U",
        "meta_norad_cat_id": 39084,
        "meta_element_set_no": 999,
        "meta_rev_at_epoch": 67226,
        "meta_bstar": 0.00010478,
        "meta_mean_motion_dot": 4.27e-06,
        "meta_mean_motion_ddot": 0,
        "tle_line1": "1 39084U 13008A   25357.16280958  .00000427  00000+0  10478-3 0  9992",
        "tle_line2": "2 39084  98.2058  65.0818 0001063  92.2060 267.9260 14.57112850672264"
      },
      "geometry": {
        "type": "Point",
        "coordinates": [
          -126.63758162844861,
          -55.31288794159562
        ]
      }
    },
    {
      "type": "Feature",
      "properties": {
        "norad_id": 39086,
        "name": "SARAL",
        "group": "resource",
        "lat": 1.330799913765334,
        "lon": -178.92772310160248,
        "alt_km": 785.157244536279,
        "timestamp": "2025-12-23T11:34:47.838962+00:00",
        "meta_object_name": "SARAL",
        "meta_object_id": "2013-009A",
        "meta_epoch": "2025-12-23T03:11:36.422880",
        "meta_mean_motion": 14.32760492,
        "meta_eccentricity": 0.0002964,
        "meta_inclination": 98.5503,
        "meta_ra_of_asc_node": 180.9278,
        "meta_arg_of_pericenter": 89.2074,
        "meta_mean_anomaly": 270.945,
        "meta_ephemeris_type": 0,
        "meta_classification_type": "U",
        "meta_norad_cat_id": 39086,
        "meta_element_set_no": 999,
        "meta_rev_at_epoch": 67039,
        "meta_bstar": 5.8046e-05,
        "meta_mean_motion_dot": 1.14e-06,
        "meta_mean_motion_ddot": 0,
        "tle_line1": "1 39086U 13009A   25357.13306045  .00000114  00000+0  58046-4 0  9995",
        "tle_line2": "2 39086  98.5503 180.9278 0002964  89.2074 270.9450 14.32760492670394"
      },
      "geometry": {
        "type": "Point",
        "coordinates": [
          -178.92772310160248,
          1.330799913765334
        ]
      }
    },
    {
      "type": "Feature",
      "properties": {
        "norad_id": 39150,
        "name": "GAOFEN-1",
        "group": "resource",
        "lat": 28.088204246992927,
        "lon": 63.68433093423272,
        "alt_km": 637.3514792728611,
        "timestamp": "2025-12-23T11:34:47.838971+00:00",
        "meta_object_name": "GAOFEN-1",
        "meta_object_id": "2013-018A",
        "meta_epoch": "2025-12-23T04:56:45.324960",
        "meta_mean_motion": 14.7649551,
        "meta_eccentricity": 0.001847,
        "meta_inclination": 97.9318,
        "meta_ra_of_asc_node": 67.68,
        "meta_arg_of_pericenter": 111.2553,
        "meta_mean_anomaly": 249.0631,
        "meta_ephemeris_type": 0,
        "meta_classification_type": "U",
        "meta_norad_cat_id": 39150,
        "meta_element_set_no": 999,
        "meta_rev_at_epoch": 68227,
        "meta_bstar": 4.8622e-05,
        "meta_mean_motion_dot": 2.88e-06,
        "meta_mean_motion_ddot": 0,
        "tle_line1": "1 39150U 13018A   25357.20608015  .00000288  00000+0  48622-4 0  9998",
        "tle_line2": "2 39150  97.9318  67.6800 0018470 111.2553 249.0631 14.76495510682274"
      },
      "geometry": {
        "type": "Point",
        "coordinates": [
          63.68433093423272,
          28.088204246992927
        ]
      }
    },
    {
      "type": "Feature",
      "properties": {
        "norad_id": 39160,
        "name": "VNREDSAT 1",
        "group": "resource",
        "lat": 3.448266357517496,
        "lon": 51.89892567226438,
        "alt_km": 679.6538909919873,
        "timestamp": "2025-12-23T11:34:47.838980+00:00",
        "meta_object_name": "VNREDSAT 1",
        "meta_object_id": "2013-021B",
        "meta_epoch": "2025-12-23T03:22:03.768960",
        "meta_mean_motion": 14.64937583,
        "meta_eccentricity": 0.000117,
        "meta_inclination": 97.9359,
        "meta_ra_of_asc_node": 52.0504,
        "meta_arg_of_pericenter": 83.5999,
        "meta_mean_anomaly": 276.5338,
        "meta_ephemeris_type": 0,
        "meta_classification_type": "U",
        "meta_norad_cat_id": 39160,
        "meta_element_set_no": 999,
        "meta_rev_at_epoch": 67451,
        "meta_bstar": 0.00014097,
        "meta_mean_motion_dot": 7.09e-06,
        "meta_mean_motion_ddot": 0,
        "tle_line1": "1 39160U 13021B   25357.14032140  .00000709  00000+0  14097-3 0  9992",
        "tle_line2": "2 39160  97.9359  52.0504 0001170  83.5999 276.5338 14.64937583674518"
      },
      "geometry": {
        "type": "Point",
        "coordinates": [
          51.89892567226438,
          3.448266357517496
        ]
      }
    }
  ]
}